CCSDS_OMM_VERS = 2.0
CREATION_DATE  = 
ORIGINATOR     = 

OBJECT_NAME    = GLOBAL-33
OBJECT_ID      = 2025-267A
CENTER_NAME    = EARTH
REF_FRAME      = TEME
TIME_SYSTEM    = UTC
MEAN_ELEMENT_THEORY = SGP/SGP4

EPOCH          = 2025-12-18T12:46:43.636800
MEAN_MOTION    = 15.31616871
ECCENTRICITY   = .00032005
INCLINATION    = 42.0244
RA_OF_ASC_NODE = 23.5500
ARG_OF_PERICENTER = 137.3862
MEAN_ANOMALY   = 222.7224

EPHEMERIS_TYPE = 0
CLASSIFICATION_TYPE = U
NORAD_CAT_ID   = 66554
ELEMENT_SET_NO = 999
REV_AT_EPOCH   = 429
BSTAR          = .35788106E-3
MEAN_MOTION_DOT = .10928E-3
MEAN_MOTION_DDOT = 0

CCSDS_OMM_VERS = 2.0
CREATION_DATE  = 
ORIGINATOR     = 

OBJECT_NAME    = ELECTRON KICK STAGE R/B
OBJECT_ID      = 2025-267B
CENTER_NAME    = EARTH
REF_FRAME      = TEME
TIME_SYSTEM    = UTC
MEAN_ELEMENT_THEORY = SGP/SGP4

EPOCH          = 2025-12-18T23:19:10.835616
MEAN_MOTION    = 15.33100254
ECCENTRICITY   = .00067924
INCLINATION    = 42.0195
RA_OF_ASC_NODE = 20.7840
ARG_OF_PERICENTER = 104.5342
MEAN_ANOMALY   = 255.6249

EPHEMERIS_TYPE = 0
CLASSIFICATION_TYPE = U
NORAD_CAT_ID   = 66555
ELEMENT_SET_NO = 999
REV_AT_EPOCH   = 436
BSTAR          = .63018599E-3
MEAN_MOTION_DOT = .20407E-3
MEAN_MOTION_DDOT = 0

CCSDS_OMM_VERS = 2.0
CREATION_DATE  = 
ORIGINATOR     = 

OBJECT_NAME    = STARLINK-35699
OBJECT_ID      = 2025-268A
CENTER_NAME    = EARTH
REF_FRAME      = TEME
TIME_SYSTEM    = UTC
MEAN_ELEMENT_THEORY = SGP/SGP4

EPOCH          = 2025-12-18T15:33:30.845952
MEAN_MOTION    = 15.50637255
ECCENTRICITY   = .00027518
INCLINATION    = 43.0007
RA_OF_ASC_NODE = 86.6453
ARG_OF_PERICENTER = 262.8822
MEAN_ANOMALY   = 97.1726

EPHEMERIS_TYPE = 0
CLASSIFICATION_TYPE = U
NORAD_CAT_ID   = 66557
ELEMENT_SET_NO = 999
REV_AT_EPOCH   = 554
BSTAR          = .19900857E-2
MEAN_MOTION_DOT = .118442E-2
MEAN_MOTION_DDOT = 0

CCSDS_OMM_VERS = 2.0
CREATION_DATE  = 
ORIGINATOR     = 

OBJECT_NAME    = STARLINK-35695
OBJECT_ID      = 2025-268B
CENTER_NAME    = EARTH
REF_FRAME      = TEME
TIME_SYSTEM    = UTC
MEAN_ELEMENT_THEORY = SGP/SGP4

EPOCH          = 2025-12-18T15:33:01.453536
MEAN_MOTION    = 15.50675208
ECCENTRICITY   = .00030746
INCLINATION    = 43.0007
RA_OF_ASC_NODE = 86.6426
ARG_OF_PERICENTER = 282.1097
MEAN_ANOMALY   = 77.9418

EPHEMERIS_TYPE = 0
CLASSIFICATION_TYPE = U
NORAD_CAT_ID   = 66558
ELEMENT_SET_NO = 999
REV_AT_EPOCH   = 554
BSTAR          = .19407607E-2
MEAN_MOTION_DOT = .115616E-2
MEAN_MOTION_DDOT = 0

CCSDS_OMM_VERS = 2.0
CREATION_DATE  = 
ORIGINATOR     = 

OBJECT_NAME    = STARLINK-35419
OBJECT_ID      = 2025-268C
CENTER_NAME    = EARTH
REF_FRAME      = TEME
TIME_SYSTEM    = UTC
MEAN_ELEMENT_THEORY = SGP/SGP4

EPOCH          = 2025-12-18T15:32:31.605792
MEAN_MOTION    = 15.50639958
ECCENTRICITY   = .00026393
INCLINATION    = 43.0014
RA_OF_ASC_NODE = 86.6400
ARG_OF_PERICENTER = 262.8994
MEAN_ANOMALY   = 97.1566

EPHEMERIS_TYPE = 0
CLASSIFICATION_TYPE = U
NORAD_CAT_ID   = 66559
ELEMENT_SET_NO = 999
REV_AT_EPOCH   = 554
BSTAR          = .17569422E-2
MEAN_MOTION_DOT = .104347E-2
MEAN_MOTION_DDOT = 0

CCSDS_OMM_VERS = 2.0
CREATION_DATE  = 
ORIGINATOR     = 

OBJECT_NAME    = STARLINK-35411
OBJECT_ID      = 2025-268D
CENTER_NAME    = EARTH
REF_FRAME      = TEME
TIME_SYSTEM    = UTC
MEAN_ELEMENT_THEORY = SGP/SGP4

EPOCH          = 2025-12-18T13:59:16.855008
MEAN_MOTION    = 15.50619101
ECCENTRICITY   = .00012512
INCLINATION    = 43.0007
RA_OF_ASC_NODE = 87.0147
ARG_OF_PERICENTER = 266.9937
MEAN_ANOMALY   = 93.0780

EPHEMERIS_TYPE = 0
CLASSIFICATION_TYPE = U
NORAD_CAT_ID   = 66560
ELEMENT_SET_NO = 999
REV_AT_EPOCH   = 553
BSTAR          = .11242099E-2
MEAN_MOTION_DOT = .66265E-3
MEAN_MOTION_DDOT = 0

CCSDS_OMM_VERS = 2.0
CREATION_DATE  = 
ORIGINATOR     = 

OBJECT_NAME    = STARLINK-35305
OBJECT_ID      = 2025-268E
CENTER_NAME    = EARTH
REF_FRAME      = TEME
TIME_SYSTEM    = UTC
MEAN_ELEMENT_THEORY = SGP/SGP4

EPOCH          = 2025-12-18T15:31:02.812512
MEAN_MOTION    = 15.50641738
ECCENTRICITY   = .00023258
INCLINATION    = 43.0007
RA_OF_ASC_NODE = 86.6322
ARG_OF_PERICENTER = 257.0503
MEAN_ANOMALY   = 103.0097

EPHEMERIS_TYPE = 0
CLASSIFICATION_TYPE = U
NORAD_CAT_ID   = 66561
ELEMENT_SET_NO = 999
REV_AT_EPOCH   = 554
BSTAR          = .16955293E-2
MEAN_MOTION_DOT = .100644E-2
MEAN_MOTION_DDOT = 0

CCSDS_OMM_VERS = 2.0
CREATION_DATE  = 
ORIGINATOR     = 

OBJECT_NAME    = STARLINK-35579
OBJECT_ID      = 2025-268F
CENTER_NAME    = EARTH
REF_FRAME      = TEME
TIME_SYSTEM    = UTC
MEAN_ELEMENT_THEORY = SGP/SGP4

EPOCH          = 2025-12-18T15:31:33.105216
MEAN_MOTION    = 15.50680629
ECCENTRICITY   = .00020241
INCLINATION    = 43.0004
RA_OF_ASC_NODE = 86.6346
ARG_OF_PERICENTER = 264.3612
MEAN_ANOMALY   = 95.7017

EPHEMERIS_TYPE = 0
CLASSIFICATION_TYPE = U
NORAD_CAT_ID   = 66562
ELEMENT_SET_NO = 999
REV_AT_EPOCH   = 554
BSTAR          = .16821578E-2
MEAN_MOTION_DOT = .99976E-3
MEAN_MOTION_DDOT = 0

CCSDS_OMM_VERS = 2.0
CREATION_DATE  = 
ORIGINATOR     = 

OBJECT_NAME    = STARLINK-35437
OBJECT_ID      = 2025-268G
CENTER_NAME    = EARTH
REF_FRAME      = TEME
TIME_SYSTEM    = UTC
MEAN_ELEMENT_THEORY = SGP/SGP4

EPOCH          = 2025-12-18T13:57:47.901024
MEAN_MOTION    = 15.50617028
ECCENTRICITY   = .0001369
INCLINATION    = 43.0004
RA_OF_ASC_NODE = 87.0056
ARG_OF_PERICENTER = 262.6429
MEAN_ANOMALY   = 97.4275

EPHEMERIS_TYPE = 0
CLASSIFICATION_TYPE = U
NORAD_CAT_ID   = 66563
ELEMENT_SET_NO = 999
REV_AT_EPOCH   = 553
BSTAR          = .10541152E-2
MEAN_MOTION_DOT = .62074E-3
MEAN_MOTION_DDOT = 0

CCSDS_OMM_VERS = 2.0
CREATION_DATE  = 
ORIGINATOR     = 

OBJECT_NAME    = STARLINK-35358
OBJECT_ID      = 2025-268H
CENTER_NAME    = EARTH
REF_FRAME      = TEME
TIME_SYSTEM    = UTC
MEAN_ELEMENT_THEORY = SGP/SGP4

EPOCH          = 2025-12-18T15:30:03.242304
MEAN_MOTION    = 15.50615887
ECCENTRICITY   = .00033737
INCLINATION    = 43.0020
RA_OF_ASC_NODE = 86.6273
ARG_OF_PERICENTER = 264.8662
MEAN_ANOMALY   = 95.1814

EPHEMERIS_TYPE = 0
CLASSIFICATION_TYPE = U
NORAD_CAT_ID   = 66564
ELEMENT_SET_NO = 999
REV_AT_EPOCH   = 554
BSTAR          = .10772954E-2
MEAN_MOTION_DOT = .63464E-3
MEAN_MOTION_DDOT = 0

CCSDS_OMM_VERS = 2.0
CREATION_DATE  = 
ORIGINATOR     = 

OBJECT_NAME    = STARLINK-35893
OBJECT_ID      = 2025-268J
CENTER_NAME    = EARTH
REF_FRAME      = TEME
TIME_SYSTEM    = UTC
MEAN_ELEMENT_THEORY = SGP/SGP4

EPOCH          = 2025-12-18T13:56:48.664320
MEAN_MOTION    = 15.50624497
ECCENTRICITY   = .0001387
INCLINATION    = 43.0015
RA_OF_ASC_NODE = 86.9997
ARG_OF_PERICENTER = 260.7796
MEAN_ANOMALY   = 99.2908

EPHEMERIS_TYPE = 0
CLASSIFICATION_TYPE = U
NORAD_CAT_ID   = 66565
ELEMENT_SET_NO = 999
REV_AT_EPOCH   = 553
BSTAR          = .12916172E-2
MEAN_MOTION_DOT = .76297E-3
MEAN_MOTION_DDOT = 0

CCSDS_OMM_VERS = 2.0
CREATION_DATE  = 
ORIGINATOR     = 

OBJECT_NAME    = STARLINK-35871
OBJECT_ID      = 2025-268K
CENTER_NAME    = EARTH
REF_FRAME      = TEME
TIME_SYSTEM    = UTC
MEAN_ELEMENT_THEORY = SGP/SGP4

EPOCH          = 2025-12-18T15:29:04.309728
MEAN_MOTION    = 15.50582880
ECCENTRICITY   = .00022304
INCLINATION    = 43.0022
RA_OF_ASC_NODE = 86.6206
ARG_OF_PERICENTER = 269.4272
MEAN_ANOMALY   = 90.6333

EPHEMERIS_TYPE = 0
CLASSIFICATION_TYPE = U
NORAD_CAT_ID   = 66566
ELEMENT_SET_NO = 999
REV_AT_EPOCH   = 554
BSTAR          = .13881829E-2
MEAN_MOTION_DOT = .81968E-3
MEAN_MOTION_DDOT = 0

