GLOBAL-33               
1 66554U 25267A   25352.53244950  .00010928  00000+0  35788-3 0  9990
2 66554  42.0244  23.5500 0003200 137.3862 222.7224 15.31616871  4299
ELECTRON KICK STAGE R/B 
1 66555U 25267B   25352.97165319  .00020407  00000+0  63019-3 0  9991
2 66555  42.0195  20.7840 0006792 104.5342 255.6249 15.33100254  4364
STARLINK-35699          
1 66557U 25268A   25352.64827368  .00118442  00000+0  19901-2 0  9994
2 66557  43.0007  86.6453 0002751 262.8822  97.1726 15.50637255  5547
STARLINK-35695          
1 66558U 25268B   25352.64793349  .00115616  00000+0  19408-2 0  9998
2 66558  43.0007  86.6426 0003074 282.1097  77.9418 15.50675208  5540
STARLINK-35419          
1 66559U 25268C   25352.64758803  .00104347  00000+0  17569-2 0  9990
2 66559  43.0014  86.6400 0002639 262.8994  97.1566 15.50639958  5548
STARLINK-35411          
1 66560U 25268D   25352.58283397  .00066265  00000+0  11242-2 0  9994
2 66560  43.0007  87.0147 0001251 266.9937  93.0780 15.50619101  5536
STARLINK-35305          
1 66561U 25268E   25352.64656033  .00100644  00000+0  16955-2 0  9999
2 66561  43.0007  86.6322 0002325 257.0503 103.0097 15.50641738  5545
STARLINK-35579          
1 66562U 25268F   25352.64691094  .00099976  00000+0  16822-2 0  9994
2 66562  43.0004  86.6346 0002024 264.3612  95.7017 15.50680629  5548
STARLINK-35437          
1 66563U 25268G   25352.58180441  .00062074  00000+0  10541-2 0  9998
2 66563  43.0004  87.0056 0001369 262.6429  97.4275 15.50617028  5537
STARLINK-35358          
1 66564U 25268H   25352.64587086  .00063464  00000+0  10773-2 0  9993
2 66564  43.0020  86.6273 0003373 264.8662  95.1814 15.50615887  5548
STARLINK-35893          
1 66565U 25268J   25352.58111880  .00076297  00000+0  12916-2 0  9991
2 66565  43.0015  86.9997 0001387 260.7796  99.2908 15.50624497  5530
STARLINK-35871          
1 66566U 25268K   25352.64518877  .00081968  00000+0  13882-2 0  9990
2 66566  43.0022  86.6206 0002230 269.4272  90.6333 15.50582880  5549
